ORBCOMM FM103 [+]       
1 40091U 14040F   23336.57489093  .00001465  00000+0  36662-3 0  9996
2 40091  47.0041 150.2749 0002398 227.1825 132.8859 14.56106671482051
ORBCOMM FM114 [+]       
1 41179U 15081A   23336.33540396  .00003106  00000+0  73439-3 0  9995
2 41179  47.0029  60.7406 0002637 272.2781  87.7802 14.56130305422385
ORBCOMM FM119 [-]       
1 41180U 15081B   23336.02869790  .00001790  00000+0  43947-3 0  9993
2 41180  47.0023 331.3774 0001906 325.0922  34.9837 14.56104006423593
ORBCOMM FM105 [-]       
1 41181U 15081C   23335.97607178  .00001001  00000+0  33487-3 0  9990
2 41181  47.0022 284.0022 0002514 309.3361  50.7296 14.44130020419313
ORBCOMM FM110 [+]       
1 41182U 15081D   23336.38103380  .00003832  00000+0  89706-3 0  9992
2 41182  47.0015  59.9474 0001018 149.7293 210.3650 14.56132236422264
ORBCOMM FM118 [+]       
1 41183U 15081E   23336.35826340  .00003791  00000+0  88813-3 0  9990
2 41183  47.0038  60.3271 0001171 132.7728 227.3256 14.56127319422363
ORBCOMM FM112 [+]       
1 41184U 15081F   23335.93815850  .00002546  00000+0  60906-3 0  9998
2 41184  46.9996 331.0534 0002199 312.5861  47.4838 14.56107564423528
ORBCOMM FM113 [+]       
1 41185U 15081G   23335.02250568  .00001776  00000+0  43665-3 0  9995
2 41185  47.0026 335.5949 0001724 321.7536  38.3226 14.56081654423372
